[{"OBJECT_NAME":"NEOSSAT","OBJECT_ID":"2013-009D","EPOCH":"2026-03-09T11:41:06.061344","MEAN_MOTION":14.35785569,"ECCENTRICITY":0.00110325,"INCLINATION":98.4141,"RA_OF_ASC_NODE":250.8974,"ARG_OF_PERICENTER":177.9575,"MEAN_ANOMALY":182.1658,"EPHEMERIS_TYPE":0,"CLASSIFICATION_TYPE":"U","NORAD_CAT_ID":39089,"ELEMENT_SET_NO":999,"REV_AT_EPOCH":68243,"BSTAR":0.00010834728,"MEAN_MOTION_DOT":2.71e-6,"MEAN_MOTION_DDOT":0},{"OBJECT_NAME":"CZ-4B DEB","OBJECT_ID":"1999-057R","EPOCH":"2026-03-09T23:01:49.621440","MEAN_MOTION":13.611471,"ECCENTRICITY":0.04369436,"INCLINATION":99.0075,"RA_OF_ASC_NODE":261.6771,"ARG_OF_PERICENTER":49.1076,"MEAN_ANOMALY":314.7069,"EPHEMERIS_TYPE":0,"CLASSIFICATION_TYPE":"U","NORAD_CAT_ID":26129,"ELEMENT_SET_NO":999,"REV_AT_EPOCH":28473,"BSTAR":0.00063191409,"MEAN_MOTION_DOT":8.71e-6,"MEAN_MOTION_DDOT":0}]
